NORAD_CAT_ID,OBJECT_NAME,OBJECT_TYPE,EPOCH,MEAN_MOTION,ECCENTRICITY,INCLINATION,RA_OF_ASC_NODE,ARG_OF_PERICENTER,MEAN_ANOMALY,BSTAR,MEAN_MOTION_DOT,MEAN_MOTION_DDOT,TLE_LINE0,TLE_LINE1,TLE_LINE2,SEMIMAJOR_AXIS,PERIOD,APOGEE,PERIGEE,DECAYED
49169.0,STARLINK-3046,PAYLOAD,2024-08-05 13:20:09,14.98345033,0.0002777,70.0024,299.7123,265.8946,94.1896,0.00031746,3.698e-05,0.0,0 STARLINK-3046,1 49169U 21082AR  24218.55566284  .00003698  00000-0  31746-3 0  9990,2 49169  70.0024 299.7123 0002777 265.8946  94.1896 14.98345033160633,6950.146,96.106,573.941,570.081,0.0
49169.0,STARLINK-3046,PAYLOAD,2024-08-05 14:56:17,14.98345966,0.0002756,70.0027,299.544,267.1695,92.9148,0.00038304,4.482e-05,0.0,0 STARLINK-3046,1 49169U 21082AR  24218.62242304  .00004482  00000-0  38304-3 0  9991,2 49169  70.0027 299.5440 0002756 267.1695  92.9148 14.98345966159436,6950.144,96.106,573.924,570.093,0.0
49169.0,STARLINK-3046,PAYLOAD,2024-08-06 05:21:30,14.9833323,0.0002234,70.002,298.0283,280.218,79.8727,0.00016109,1.83e-05,0.0,0 STARLINK-3046,1 49169U 21082AR  24219.22326974  .00001830  00000-0  16109-3 0  9997,2 49169  70.0020 298.0283 0002234 280.2180  79.8727 14.98333230160737,6950.183,96.107,573.601,570.495,0.0
49169.0,STARLINK-3046,PAYLOAD,2024-08-06 06:57:38,14.98319026,0.000304,70.0021,297.8602,273.4036,86.6775,-0.0002102,-2.599e-05,0.0,0 STARLINK-3046,1 49169U 21082AR  24219.29003332 -.00002599  00000-0 -21020-3 0  9997,2 49169  70.0021 297.8602 0003040 273.4036  86.6775 14.98319026160747,6950.227,96.108,574.205,569.979,0.0
49169.0,STARLINK-3046,PAYLOAD,2024-08-06 13:22:10,14.98318274,0.0003099,70.0018,297.1862,273.9598,86.1207,-0.00016659,-2.08e-05,0.0,0 STARLINK-3046,1 49169U 21082AR  24219.55707092 -.00002080  00000-0 -16659-3 0  9997,2 49169  70.0018 297.1862 0003099 273.9598  86.1207 14.98318274159574,6950.229,96.108,574.248,569.94,0.0
49169.0,STARLINK-3046,PAYLOAD,2024-08-07 11:48:03,14.9835095,0.0003327,70.0012,294.8294,276.5898,83.4882,0.0017079,0.00020356,0.0,0 STARLINK-3046,1 49169U 21082AR  24220.49171023  .00020356  00000-0  17079-2 0  9991,2 49169  70.0012 294.8294 0003327 276.5898  83.4882 14.98350950160924,6950.128,96.106,574.305,569.681,0.0
49169.0,STARLINK-3046,PAYLOAD,2024-08-08 13:26:12,14.98348052,0.000328,70.001,292.1364,276.0017,84.0768,0.00058714,6.923e-05,0.0,0 STARLINK-3046,1 49169U 21082AR  24221.55986348  .00006923  00000-0  58714-3 0  9999,2 49169  70.0010 292.1364 0003280 276.0017  84.0768 14.98348052159879,6950.137,96.106,574.282,569.722,0.0
49169.0,STARLINK-3046,PAYLOAD,2024-08-08 15:02:20,14.98350732,0.0003265,70.0011,291.968,274.8863,85.1923,0.00060491,7.136e-05,0.0,0 STARLINK-3046,1 49169U 21082AR  24221.62662225  .00007136  00000-0  60491-3 0  9994,2 49169  70.0011 291.9680 0003265 274.8863  85.1923 14.98350732161096,6950.129,96.106,574.263,569.725,0.0
49169.0,STARLINK-3046,PAYLOAD,2024-08-08 21:26:52,14.9833917,0.0002407,70.0035,291.2941,275.4619,84.6265,0.00013074,1.468e-05,0.0,0 STARLINK-3046,1 49169U 21082AR  24221.89366445  .00001468  00000-0  13074-3 0  9995,2 49169  70.0035 291.2941 0002407 275.4619  84.6265 14.98339170159923,6950.165,96.106,573.702,570.357,0.0
49169.0,STARLINK-3046,PAYLOAD,2024-08-09 05:27:32,14.98337864,0.0002576,70.0036,290.4534,265.6453,94.4412,0.00011367,1.264e-05,0.0,0 STARLINK-3046,1 49169U 21082AR  24222.22746440  .00001264  00000-0  11367-3 0  9997,2 49169  70.0036 290.4534 0002576 265.6453  94.4412 14.98337864161189,6950.169,96.106,573.824,570.243,0.0
49169.0,STARLINK-3046,PAYLOAD,2024-08-09 13:28:13,14.98336115,0.0002806,70.0016,289.6118,267.9146,92.1692,2.3739e-05,1.9e-06,0.0,0 STARLINK-3046,1 49169U 21082AR  24222.56126379  .00000190  00000-0  23739-4 0  9991,2 49169  70.0016 289.6118 0002806 267.9146  92.1692 14.98336115160020,6950.174,96.107,573.989,570.089,0.0
49169.0,STARLINK-3046,PAYLOAD,2024-08-10 03:53:26,14.98328776,0.0002373,70.0032,288.0961,263.4203,96.6686,0.00014215,1.604e-05,0.0,0 STARLINK-3046,1 49169U 21082AR  24223.16210724  .00001604  00000-0  14215-3 0  9995,2 49169  70.0032 288.0961 0002373 263.4203  96.6686 14.98328776161321,6950.197,96.107,573.711,570.412,0.0
49169.0,STARLINK-3046,PAYLOAD,2024-08-10 13:30:14,14.98331017,0.0002594,70.0008,287.087,260.523,99.5636,6.6768e-05,7.04e-06,0.0,0 STARLINK-3046,1 49169U 21082AR  24223.56266806  .00000704  00000-0  66768-4 0  9992,2 49169  70.0008 287.0870 0002594 260.5230  99.5636 14.98331017160176,6950.19,96.107,573.858,570.252,0.0
49169.0,STARLINK-3046,PAYLOAD,2024-08-10 15:06:22,14.98332674,0.0002728,70.0004,286.9179,263.3077,96.7772,8.5798e-05,9.31e-06,0.0,0 STARLINK-3046,1 49169U 21082AR  24223.62942668  .00000931  00000-0  85798-4 0  9992,2 49169  70.0004 286.9179 0002728 263.3077  96.7772 14.98332674160182,6950.185,96.107,573.946,570.154,0.0
49169.0,STARLINK-3046,PAYLOAD,2024-08-11 10:19:58,14.98337717,0.0003165,70.0003,284.8973,269.7883,90.2913,0.00025317,2.93e-05,0.0,0 STARLINK-3046,1 49169U 21082AR  24224.43054244  .00002930  00000-0  25317-3 0  9997,2 49169  70.0003 284.8973 0003165 269.7883  90.2913 14.98337717161518,6950.169,96.107,574.234,569.834,0.0
49169.0,STARLINK-3046,PAYLOAD,2024-08-11 21:32:54,14.98346732,0.0003168,70.0004,283.7184,269.0587,91.0209,-0.00010761,-1.377e-05,0.0,0 STARLINK-3046,1 49169U 21082AR  24224.89785539 -.00001377  00000-0 -10761-3 0  9998,2 49169  70.0004 283.7184 0003168 269.0587  91.0209 14.98346732160375,6950.141,96.106,574.208,569.804,0.0
49169.0,STARLINK-3046,PAYLOAD,2024-08-12 05:33:35,14.98332722,0.0003093,70.0008,282.877,268.9194,91.161,0.00012939,1.451e-05,0.0,0 STARLINK-3046,1 49169U 21082AR  24225.23166344  .00001451  00000-0  12939-3 0  9994,2 49169  70.0008 282.8770 0003093 268.9194  91.1610 14.98332722161630,6950.184,96.107,574.199,569.9,0.0
49169.0,STARLINK-3046,PAYLOAD,2024-08-12 10:21:59,14.98348351,0.0003057,70.0004,282.3727,269.1146,90.9663,0.00043648,5.121e-05,0.0,0 STARLINK-3046,1 49169U 21082AR  24225.43193437  .00005121  00000-0  43648-3 0  9998,2 49169  70.0004 282.3727 0003057 269.1146  90.9663 14.98348351161666,6950.136,96.106,574.126,569.876,0.0
49169.0,STARLINK-3046,PAYLOAD,2024-08-13 03:59:28,14.98334488,0.0002752,70.0004,280.5211,265.6139,94.4705,3.931e-05,3.76e-06,0.0,0 STARLINK-3046,1 49169U 21082AR  24226.16629854  .00000376  00000-0  39310-4 0  9995,2 49169  70.0004 280.5211 0002752 265.6139  94.4705 14.98334488161772,6950.179,96.107,573.957,570.131,0.0
49169.0,STARLINK-3046,PAYLOAD,2024-08-13 10:23:59,14.98346514,0.0002856,69.9999,279.8475,270.5278,89.5554,0.00024176,2.794e-05,0.0,0 STARLINK-3046,1 49169U 21082AR  24226.43333271  .00002794  00000-0  24176-3 0  9999,2 49169  69.9999 279.8475 0002856 270.5278  89.5554 14.98346514161814,6950.142,96.106,573.992,570.022,0.0
49169.0,STARLINK-3046,PAYLOAD,2024-08-14 04:01:29,14.98330091,0.0002653,70.0003,277.997,269.2795,90.806,1.6481e-05,1.04e-06,0.0,0 STARLINK-3046,1 49169U 21082AR  24227.16770019  .00000104  00000-0  16481-4 0  9999,2 49169  70.0003 277.9970 0002653 269.2795  90.8060 14.98330091161928,6950.193,96.107,573.901,570.214,0.0
49169.0,STARLINK-3046,PAYLOAD,2024-08-14 12:02:10,14.98313568,0.0002842,69.9996,277.1547,268.9415,91.1419,-0.00034949,-4.259e-05,0.0,0 STARLINK-3046,1 49169U 21082AR  24227.50151095 -.00004259  00000-0 -34949-3 0  9999,2 49169  69.9996 277.1547 0002842 268.9415  91.1419 14.98313568161970,6950.244,96.108,574.084,570.133,0.0
49169.0,STARLINK-3046,PAYLOAD,2024-08-14 13:38:18,14.98313008,0.0002848,69.9996,276.9864,269.2519,90.8313,-0.00033312,-4.064e-05,0.0,0 STARLINK-3046,1 49169U 21082AR  24227.56827178 -.00004064  00000-0 -33312-3 0  9994,2 49169  69.9996 276.9864 0002848 269.2519  90.8313 14.98313008160779,6950.245,96.108,574.09,570.131,0.0
49169.0,STARLINK-3046,PAYLOAD,2024-08-14 20:02:51,14.98319613,0.0003076,69.998,276.3122,274.1774,85.9034,-0.0001631,-2.038e-05,0.0,0 STARLINK-3046,1 49169U 21082AR  24227.83531596 -.00002038  00000-0 -16310-3 0  9998,2 49169  69.9980 276.3122 0003076 274.1774  85.9034 14.98319613160813,6950.225,96.108,574.228,569.952,0.0
49169.0,STARLINK-3046,PAYLOAD,2024-08-15 08:51:56,14.98310071,0.0002496,69.9981,274.9658,265.9674,94.12,3.9144e-05,3.74e-06,0.0,0 STARLINK-3046,1 49169U 21082AR  24228.36940370  .00000374  00000-0  39144-4 0  9991,2 49169  69.9981 274.9658 0002496 265.9674  94.1200 14.98310071160898,6950.255,96.108,573.854,570.385,0.0
49169.0,STARLINK-3046,PAYLOAD,2024-08-15 20:04:53,14.98293974,0.0002622,69.9979,273.7874,269.1124,90.9734,0.00039661,4.638e-05,0.0,0 STARLINK-3046,1 49169U 21082AR  24228.83673304  .00004638  00000-0  39661-3 0  9993,2 49169  69.9979 273.7874 0002622 269.1124  90.9734 14.98293974162170,6950.304,96.109,573.992,570.347,0.0
49169.0,STARLINK-3046,PAYLOAD,2024-08-16 04:05:32,14.98317225,0.000306,69.9977,272.945,278.9021,81.1792,0.00025662,2.969e-05,0.0,0 STARLINK-3046,1 49169U 21082AR  24229.17052079  .00002969  00000-0  25662-3 0  9992,2 49169  69.9977 272.9450 0003060 278.9021  81.1792 14.98317225162228,6950.232,96.108,574.224,569.971,0.0
49169.0,STARLINK-3046,PAYLOAD,2024-08-16 10:30:05,14.98323247,0.0003007,69.9977,272.2716,280.0205,80.0614,0.00033461,3.901e-05,0.0,0 STARLINK-3046,1 49169U 21082AR  24229.43755957  .00003901  00000-0  33461-3 0  9999,2 49169  69.9977 272.2716 0003007 280.0205  80.0614 14.98323247161057,6950.214,96.107,574.169,569.989,0.0
49169.0,STARLINK-3046,PAYLOAD,2024-08-17 04:07:33,14.98334168,0.0003034,69.9975,270.4193,279.1255,80.9561,0.0003805,4.45e-05,0.0,0 STARLINK-3046,1 49169U 21082AR  24230.17191647  .00004450  00000-0  38050-3 0  9991,2 49169  69.9975 270.4193 0003034 279.1255  80.9561 14.98334168162378,6950.18,96.107,574.154,569.936,0.0
49169.0,STARLINK-3046,PAYLOAD,2024-08-17 07:19:49,14.98339634,0.0003068,69.9988,270.0828,279.6076,80.4737,0.00047997,5.64e-05,0.0,0 STARLINK-3046,1 49169U 21082AR  24230.30543819  .00005640  00000-0  47997-3 0  9990,2 49169  69.9988 270.0828 0003068 279.6076  80.4737 14.98339634161187,6950.163,96.106,574.16,569.896,0.0
